HIMAWARI-8              
1 40267U 14060A   23209.53362988 -.00000265  00000+0  00000+0 0  9992
2 40267   0.0141  14.6586 0000928 102.2288 161.7862  1.00269671 32186
